TEVEL2-1                
1 63217U 25052H   26115.69747080  .00017197  00000+0  55685-3 0  9995
2 63217  97.3936  11.6914 0001777   5.2417 354.8843 15.32093725 62056
TEVEL2-3                
1 63218U 25052J   26115.69381371  .00016845  00000+0  54476-3 0  9999
2 63218  97.3942  11.7034 0001777   4.8166 355.3093 15.32137804 62054
TEVEL2-2                
1 63219U 25052K   26116.22050591  .00021050  00000+0  68009-3 0  9998
2 63219  97.3936  12.2156 0001823   3.2386 356.8867 15.32123362 62136
TEVEL2-9                
1 63237U 25052AD  26116.46027397  .00020322  00000+0  69464-3 0  9999
2 63237  97.4000  11.9354 0005328 345.1009  15.0073 15.30296990 62116
TEVEL2-7                
1 63238U 25052AE  26116.42655297  .00019475  00000+0  67111-3 0  9996
2 63238  97.4002  11.8381 0005411 345.5233  14.5852 15.30041502 62109
TEVEL2-8                
1 63239U 25052AF  26116.49961838  .00019542  00000+0  67375-3 0  9992
2 63239  97.4003  11.8895 0005451 345.9026  14.2061 15.30025083 62115
HADES-ICM               
1 63492U 25052BN  26116.24297333  .00438992  00000+0  25842-2 0  9994
2 63492  97.3824  19.0457 0003358 131.2428 228.9128 15.76996756 62589
INNOSAT 16 (RS92S7)     
1 64878U 25155C   26116.49910713  .00007806  00000+0  31644-3 0  9992
2 64878  97.4526  83.8274 0011047  18.9312 341.2335 15.24865392 72798
GEOSCAN 6 (RS92S6)      
1 64879U 25155D   26116.50215970  .00012875  00000+0  45740-3 0  9992
2 64879  97.4521  84.9064 0008188  17.1551 342.9964 15.29124746 72861
GEOSCAN 1 (RS92S1)      
1 64880U 25155E   26116.52330108  .00014977  00000+0  52323-3 0  9997
2 64880  97.4519  85.0339 0008121  17.5191 342.6328 15.29636808 72877
239ALFEROV (RS61S)      
1 64881U 25155F   26116.49580544  .00018699  00000+0  61594-3 0  9990
2 64881  97.4521  85.4069 0007677  19.0069 341.1457 15.31498761 72897
GEOSCAN 2 (RS92S2)      
1 64890U 25155Q   26116.52635399  .00014379  00000+0  49815-3 0  9996
2 64890  97.4517  85.1684 0006944   6.2805 353.8521 15.29926778 72886
GEOSCAN 5 (RS92S5)      
1 64891U 25155R   26116.49562944  .00018188  00000+0  59328-3 0  9990
2 64891  97.4513  85.5243 0006887  27.7095 332.4512 15.31825057 72900
GEOSCAN 4 (RS92S4)      
1 64892U 25155S   26116.48447801  .00018703  00000+0  60761-3 0  9990
2 64892  97.4516  85.5481 0006914  28.0036 332.1576 15.31950105 72908
GEOSCAN 3 (RS92S3)      
1 64893U 25155T   26116.48112839  .00022518  00000+0  69402-3 0  9991
2 64893  97.4505  85.8386 0006697  31.6731 328.4913 15.33597755 72929
INNOSAT 3 (RS92S0)      
1 64894U 25155U   26116.52768867  .00043767  00000+0  10854-2 0  9990
2 64894  97.4468  86.9409 0006130  39.5316 320.6376 15.40229638 73001
KNACKSAT-2              
1 67683U 98067XZ  26116.25625458  .00044626  00000+0  63922-3 0  9999
2 67683  51.6294 194.7914 0012362   5.5713 354.5413 15.55638730 12189
